[{"OBJECT_NAME":"STARLINK-30476","OBJECT_ID":"2023-147T","EPOCH":"2026-03-09T21:58:09.534432","MEAN_MOTION":15.36840948,"ECCENTRICITY":0.00192261,"INCLINATION":42.9949,"RA_OF_ASC_NODE":270.5227,"ARG_OF_PERICENTER":243.5984,"MEAN_ANOMALY":116.2898,"EPHEMERIS_TYPE":0,"CLASSIFICATION_TYPE":"U","NORAD_CAT_ID":57930,"ELEMENT_SET_NO":999,"REV_AT_EPOCH":13725,"BSTAR":0.0025736749,"MEAN_MOTION_DOT":0.00096215,"MEAN_MOTION_DDOT":0},{"OBJECT_NAME":"HJS-6D","OBJECT_ID":"2025-067D","EPOCH":"2026-03-09T22:49:18.222240","MEAN_MOTION":15.37665042,"ECCENTRICITY":0.00092864,"INCLINATION":54.9903,"RA_OF_ASC_NODE":108.3969,"ARG_OF_PERICENTER":72.3879,"MEAN_ANOMALY":287.8162,"EPHEMERIS_TYPE":0,"CLASSIFICATION_TYPE":"U","NORAD_CAT_ID":63431,"ELEMENT_SET_NO":999,"REV_AT_EPOCH":5274,"BSTAR":0.0003282023,"MEAN_MOTION_DOT":0.00011947,"MEAN_MOTION_DDOT":0}]
